AQUA                    
1 27424U 02022A   26076.21246623  .00000949  00000+0  19912-3 0  9998
2 27424  98.4187  43.7151 0000684 107.3653 310.8807 14.61995145269832
CZ-4B R/B               
1 27432U 02024C   26076.14559117  .00000032  00000+0  39643-4 0  9993
2 27432  98.8822 129.5141 0050118   3.1185  55.9720 14.14548891230292
MIDORI II (ADEOS-II)    
1 27597U 02056A   26075.87417030  .00000273  00000+0  12509-3 0  9994
2 27597  98.7779  34.4019 0001307  34.2532 325.8734 14.29290773211325
H-2A R/B                
1 27601U 02056E   26075.88785120  .00000226  00000+0  93554-4 0  9997
2 27601  98.3214  35.9799 0070909 139.3884 242.9440 14.33765485215142
CZ-4B R/B               
1 28059U 03049C   26076.22304171  .00000325  00000+0  86074-4 0  9999
2 28059  98.6884  71.4238 0047585 207.5087 152.3590 14.55027318187694
CZ-2C R/B               
1 28222U 04012C   26075.64275316  .00051783  00000+0  51690-3 0  9994
2 28222  97.7217 141.5982 0012936 281.2149  78.7656 15.65382493205360
SL-16 R/B               
1 28353U 04021B   26076.09397169 -.00000273  00000+0 -11723-3 0  9993
2 28353  70.9997 216.9533 0004445 359.7231   0.3888 14.14594825123882
CZ-4B R/B               
1 28415U 04035C   26076.10744856  .00006478  00000+0  22824-3 0  9993
2 28415  97.3489 110.2614 0030274 304.0396  55.7971 15.29198366181046
CZ-2C R/B               
1 28480U 04046B   26075.77791675  .00000120  00000+0  59320-4 0  9990
2 28480  98.1981 350.3205 0140277 133.5713 227.7216 14.26994629109517
ARIANE 5 R/B            
1 28499U 04049H   26076.17786469  .00000713  00000+0  85250-4 0  9992
2 28499  98.2639 244.9158 0083413 327.5301  32.0797 14.85279591146903
CZ-2D R/B               
1 28738U 05024B   26075.76311287  .00038266  00000+0  45902-3 0  9991
2 28738  97.3589  91.1719 0004622  27.9041 332.2463 15.60813874140883
ALOS (DAICHI)           
1 28931U 06002A   26076.12747105  .00001230  00000+0  21417-3 0  9992
2 28931  98.1230  32.0461 0000723  73.2458 286.8827 14.69834120 74577
