CCSDS_OMM_VERS = 2.0
CREATION_DATE  = 
ORIGINATOR     = 

OBJECT_NAME    = AQUA
OBJECT_ID      = 2002-022A
CENTER_NAME    = EARTH
REF_FRAME      = TEME
TIME_SYSTEM    = UTC
MEAN_ELEMENT_THEORY = SGP/SGP4

EPOCH          = 2026-03-17T05:05:57.082272
MEAN_MOTION    = 14.61995145
ECCENTRICITY   = .0000684
INCLINATION    = 98.4187
RA_OF_ASC_NODE = 43.7151
ARG_OF_PERICENTER = 107.3653
MEAN_ANOMALY   = 310.8807

EPHEMERIS_TYPE = 0
CLASSIFICATION_TYPE = U
NORAD_CAT_ID   = 27424
ELEMENT_SET_NO = 999
REV_AT_EPOCH   = 26983
BSTAR          = .19912E-3
MEAN_MOTION_DOT = .949E-5
MEAN_MOTION_DDOT = 0

CCSDS_OMM_VERS = 2.0
CREATION_DATE  = 
ORIGINATOR     = 

OBJECT_NAME    = CZ-4B R/B
OBJECT_ID      = 2002-024C
CENTER_NAME    = EARTH
REF_FRAME      = TEME
TIME_SYSTEM    = UTC
MEAN_ELEMENT_THEORY = SGP/SGP4

EPOCH          = 2026-03-17T03:29:39.077088
MEAN_MOTION    = 14.14548891
ECCENTRICITY   = .0050118
INCLINATION    = 98.8822
RA_OF_ASC_NODE = 129.5141
ARG_OF_PERICENTER = 3.1185
MEAN_ANOMALY   = 55.9720

EPHEMERIS_TYPE = 0
CLASSIFICATION_TYPE = U
NORAD_CAT_ID   = 27432
ELEMENT_SET_NO = 999
REV_AT_EPOCH   = 23029
BSTAR          = .39643E-4
MEAN_MOTION_DOT = .32E-6
MEAN_MOTION_DDOT = 0

CCSDS_OMM_VERS = 2.0
CREATION_DATE  = 
ORIGINATOR     = 

OBJECT_NAME    = MIDORI II (ADEOS-II)
OBJECT_ID      = 2002-056A
CENTER_NAME    = EARTH
REF_FRAME      = TEME
TIME_SYSTEM    = UTC
MEAN_ELEMENT_THEORY = SGP/SGP4

EPOCH          = 2026-03-16T20:58:48.313920
MEAN_MOTION    = 14.29290773
ECCENTRICITY   = .0001307
INCLINATION    = 98.7779
RA_OF_ASC_NODE = 34.4019
ARG_OF_PERICENTER = 34.2532
MEAN_ANOMALY   = 325.8734

EPHEMERIS_TYPE = 0
CLASSIFICATION_TYPE = U
NORAD_CAT_ID   = 27597
ELEMENT_SET_NO = 999
REV_AT_EPOCH   = 21132
BSTAR          = .12509E-3
MEAN_MOTION_DOT = .273E-5
MEAN_MOTION_DDOT = 0

CCSDS_OMM_VERS = 2.0
CREATION_DATE  = 
ORIGINATOR     = 

OBJECT_NAME    = H-2A R/B
OBJECT_ID      = 2002-056E
CENTER_NAME    = EARTH
REF_FRAME      = TEME
TIME_SYSTEM    = UTC
MEAN_ELEMENT_THEORY = SGP/SGP4

EPOCH          = 2026-03-16T21:18:30.343680
MEAN_MOTION    = 14.33765485
ECCENTRICITY   = .0070909
INCLINATION    = 98.3214
RA_OF_ASC_NODE = 35.9799
ARG_OF_PERICENTER = 139.3884
MEAN_ANOMALY   = 242.9440

EPHEMERIS_TYPE = 0
CLASSIFICATION_TYPE = U
NORAD_CAT_ID   = 27601
ELEMENT_SET_NO = 999
REV_AT_EPOCH   = 21514
BSTAR          = .93554E-4
MEAN_MOTION_DOT = .226E-5
MEAN_MOTION_DDOT = 0

CCSDS_OMM_VERS = 2.0
CREATION_DATE  = 
ORIGINATOR     = 

OBJECT_NAME    = CZ-4B R/B
OBJECT_ID      = 2003-049C
CENTER_NAME    = EARTH
REF_FRAME      = TEME
TIME_SYSTEM    = UTC
MEAN_ELEMENT_THEORY = SGP/SGP4

EPOCH          = 2026-03-17T05:21:10.803744
MEAN_MOTION    = 14.55027318
ECCENTRICITY   = .0047585
INCLINATION    = 98.6884
RA_OF_ASC_NODE = 71.4238
ARG_OF_PERICENTER = 207.5087
MEAN_ANOMALY   = 152.3590

EPHEMERIS_TYPE = 0
CLASSIFICATION_TYPE = U
NORAD_CAT_ID   = 28059
ELEMENT_SET_NO = 999
REV_AT_EPOCH   = 18769
BSTAR          = .86074E-4
MEAN_MOTION_DOT = .325E-5
MEAN_MOTION_DDOT = 0

CCSDS_OMM_VERS = 2.0
CREATION_DATE  = 
ORIGINATOR     = 

OBJECT_NAME    = CZ-2C R/B
OBJECT_ID      = 2004-012C
CENTER_NAME    = EARTH
REF_FRAME      = TEME
TIME_SYSTEM    = UTC
MEAN_ELEMENT_THEORY = SGP/SGP4

EPOCH          = 2026-03-16T15:25:33.873024
MEAN_MOTION    = 15.65382493
ECCENTRICITY   = .0012936
INCLINATION    = 97.7217
RA_OF_ASC_NODE = 141.5982
ARG_OF_PERICENTER = 281.2149
MEAN_ANOMALY   = 78.7656

EPHEMERIS_TYPE = 0
CLASSIFICATION_TYPE = U
NORAD_CAT_ID   = 28222
ELEMENT_SET_NO = 999
REV_AT_EPOCH   = 20536
BSTAR          = .5169E-3
MEAN_MOTION_DOT = .51783E-3
MEAN_MOTION_DDOT = 0

CCSDS_OMM_VERS = 2.0
CREATION_DATE  = 
ORIGINATOR     = 

OBJECT_NAME    = SL-16 R/B
OBJECT_ID      = 2004-021B
CENTER_NAME    = EARTH
REF_FRAME      = TEME
TIME_SYSTEM    = UTC
MEAN_ELEMENT_THEORY = SGP/SGP4

EPOCH          = 2026-03-17T02:15:19.154016
MEAN_MOTION    = 14.14594825
ECCENTRICITY   = .0004445
INCLINATION    = 70.9997
RA_OF_ASC_NODE = 216.9533
ARG_OF_PERICENTER = 359.7231
MEAN_ANOMALY   = 0.3888

EPHEMERIS_TYPE = 0
CLASSIFICATION_TYPE = U
NORAD_CAT_ID   = 28353
ELEMENT_SET_NO = 999
REV_AT_EPOCH   = 12388
BSTAR          = -.11723E-3
MEAN_MOTION_DOT = -.273E-5
MEAN_MOTION_DDOT = 0

CCSDS_OMM_VERS = 2.0
CREATION_DATE  = 
ORIGINATOR     = 

OBJECT_NAME    = CZ-4B R/B
OBJECT_ID      = 2004-035C
CENTER_NAME    = EARTH
REF_FRAME      = TEME
TIME_SYSTEM    = UTC
MEAN_ELEMENT_THEORY = SGP/SGP4

EPOCH          = 2026-03-17T02:34:43.555584
MEAN_MOTION    = 15.29198366
ECCENTRICITY   = .0030274
INCLINATION    = 97.3489
RA_OF_ASC_NODE = 110.2614
ARG_OF_PERICENTER = 304.0396
MEAN_ANOMALY   = 55.7971

EPHEMERIS_TYPE = 0
CLASSIFICATION_TYPE = U
NORAD_CAT_ID   = 28415
ELEMENT_SET_NO = 999
REV_AT_EPOCH   = 18104
BSTAR          = .22824E-3
MEAN_MOTION_DOT = .6478E-4
MEAN_MOTION_DDOT = 0

CCSDS_OMM_VERS = 2.0
CREATION_DATE  = 
ORIGINATOR     = 

OBJECT_NAME    = CZ-2C R/B
OBJECT_ID      = 2004-046B
CENTER_NAME    = EARTH
REF_FRAME      = TEME
TIME_SYSTEM    = UTC
MEAN_ELEMENT_THEORY = SGP/SGP4

EPOCH          = 2026-03-16T18:40:12.007200
MEAN_MOTION    = 14.26994629
ECCENTRICITY   = .0140277
INCLINATION    = 98.1981
RA_OF_ASC_NODE = 350.3205
ARG_OF_PERICENTER = 133.5713
MEAN_ANOMALY   = 227.7216

EPHEMERIS_TYPE = 0
CLASSIFICATION_TYPE = U
NORAD_CAT_ID   = 28480
ELEMENT_SET_NO = 999
REV_AT_EPOCH   = 10951
BSTAR          = .5932E-4
MEAN_MOTION_DOT = .12E-5
MEAN_MOTION_DDOT = 0

CCSDS_OMM_VERS = 2.0
CREATION_DATE  = 
ORIGINATOR     = 

OBJECT_NAME    = ARIANE 5 R/B
OBJECT_ID      = 2004-049H
CENTER_NAME    = EARTH
REF_FRAME      = TEME
TIME_SYSTEM    = UTC
MEAN_ELEMENT_THEORY = SGP/SGP4

EPOCH          = 2026-03-17T04:16:07.509216
MEAN_MOTION    = 14.85279591
ECCENTRICITY   = .0083413
INCLINATION    = 98.2639
RA_OF_ASC_NODE = 244.9158
ARG_OF_PERICENTER = 327.5301
MEAN_ANOMALY   = 32.0797

EPHEMERIS_TYPE = 0
CLASSIFICATION_TYPE = U
NORAD_CAT_ID   = 28499
ELEMENT_SET_NO = 999
REV_AT_EPOCH   = 14690
BSTAR          = .8525E-4
MEAN_MOTION_DOT = .713E-5
MEAN_MOTION_DDOT = 0

CCSDS_OMM_VERS = 2.0
CREATION_DATE  = 
ORIGINATOR     = 

OBJECT_NAME    = CZ-2D R/B
OBJECT_ID      = 2005-024B
CENTER_NAME    = EARTH
REF_FRAME      = TEME
TIME_SYSTEM    = UTC
MEAN_ELEMENT_THEORY = SGP/SGP4

EPOCH          = 2026-03-16T18:18:52.951968
MEAN_MOTION    = 15.60813874
ECCENTRICITY   = .0004622
INCLINATION    = 97.3589
RA_OF_ASC_NODE = 91.1719
ARG_OF_PERICENTER = 27.9041
MEAN_ANOMALY   = 332.2463

EPHEMERIS_TYPE = 0
CLASSIFICATION_TYPE = U
NORAD_CAT_ID   = 28738
ELEMENT_SET_NO = 999
REV_AT_EPOCH   = 14088
BSTAR          = .45902E-3
MEAN_MOTION_DOT = .38266E-3
MEAN_MOTION_DDOT = 0

CCSDS_OMM_VERS = 2.0
CREATION_DATE  = 
ORIGINATOR     = 

OBJECT_NAME    = ALOS (DAICHI)
OBJECT_ID      = 2006-002A
CENTER_NAME    = EARTH
REF_FRAME      = TEME
TIME_SYSTEM    = UTC
MEAN_ELEMENT_THEORY = SGP/SGP4

EPOCH          = 2026-03-17T03:03:33.498720
MEAN_MOTION    = 14.69834120
ECCENTRICITY   = .0000723
INCLINATION    = 98.1230
RA_OF_ASC_NODE = 32.0461
ARG_OF_PERICENTER = 73.2458
MEAN_ANOMALY   = 286.8827

EPHEMERIS_TYPE = 0
CLASSIFICATION_TYPE = U
NORAD_CAT_ID   = 28931
ELEMENT_SET_NO = 999
REV_AT_EPOCH   = 7457
BSTAR          = .21417E-3
MEAN_MOTION_DOT = .123E-4
MEAN_MOTION_DDOT = 0

